[{"OBJECT_NAME":"FENGYUN 1C DEB","OBJECT_ID":"1999-025CJF","EPOCH":"2026-04-03T17:23:57.020928","MEAN_MOTION":14.04808474,"ECCENTRICITY":0.03035127,"INCLINATION":98.4292,"RA_OF_ASC_NODE":259.57,"ARG_OF_PERICENTER":348.0706,"MEAN_ANOMALY":22.5468,"EPHEMERIS_TYPE":0,"CLASSIFICATION_TYPE":"U","NORAD_CAT_ID":31841,"ELEMENT_SET_NO":999,"REV_AT_EPOCH":60911,"BSTAR":0.0017252115,"MEAN_MOTION_DOT":4.141e-5,"MEAN_MOTION_DDOT":0},{"OBJECT_NAME":"FENGYUN 1C DEB","OBJECT_ID":"1999-025CJH","EPOCH":"2026-04-02T18:37:42.040992","MEAN_MOTION":13.35099547,"ECCENTRICITY":0.06352166,"INCLINATION":99.2898,"RA_OF_ASC_NODE":29.0529,"ARG_OF_PERICENTER":79.7875,"MEAN_ANOMALY":287.4227,"EPHEMERIS_TYPE":0,"CLASSIFICATION_TYPE":"U","NORAD_CAT_ID":31843,"ELEMENT_SET_NO":999,"REV_AT_EPOCH":66177,"BSTAR":0.0032494556,"MEAN_MOTION_DOT":5.227e-5,"MEAN_MOTION_DDOT":0},{"OBJECT_NAME":"FENGYUN 1C DEB","OBJECT_ID":"1999-025CJJ","EPOCH":"2026-04-04T11:14:52.840896","MEAN_MOTION":14.2022228,"ECCENTRICITY":0.01030264,"INCLINATION":100.3072,"RA_OF_ASC_NODE":106.5232,"ARG_OF_PERICENTER":42.8801,"MEAN_ANOMALY":318.0347,"EPHEMERIS_TYPE":0,"CLASSIFICATION_TYPE":"U","NORAD_CAT_ID":31844,"ELEMENT_SET_NO":999,"REV_AT_EPOCH":96932,"BSTAR":0.0012442989,"MEAN_MOTION_DOT":2.747e-5,"MEAN_MOTION_DDOT":0},{"OBJECT_NAME":"FENGYUN 1C DEB","OBJECT_ID":"1999-025CJU","EPOCH":"2026-04-02T23:32:37.144608","MEAN_MOTION":14.03240692,"ECCENTRICITY":0.00715405,"INCLINATION":98.8517,"RA_OF_ASC_NODE":98.1334,"ARG_OF_PERICENTER":189.7206,"MEAN_ANOMALY":170.2581,"EPHEMERIS_TYPE":0,"CLASSIFICATION_TYPE":"U","NORAD_CAT_ID":31854,"ELEMENT_SET_NO":999,"REV_AT_EPOCH":70832,"BSTAR":0.00026193135,"MEAN_MOTION_DOT":3.75e-6,"MEAN_MOTION_DDOT":0},{"OBJECT_NAME":"FENGYUN 1C DEB","OBJECT_ID":"1999-025CJX","EPOCH":"2026-03-25T06:16:39.568512","MEAN_MOTION":13.62349305,"ECCENTRICITY":0.03092924,"INCLINATION":96.1886,"RA_OF_ASC_NODE":81.5941,"ARG_OF_PERICENTER":357.239,"MEAN_ANOMALY":2.7043,"EPHEMERIS_TYPE":0,"CLASSIFICATION_TYPE":"U","NORAD_CAT_ID":31857,"ELEMENT_SET_NO":999,"REV_AT_EPOCH":63025,"BSTAR":0.0019911529,"MEAN_MOTION_DOT":2.105e-5,"MEAN_MOTION_DDOT":0},{"OBJECT_NAME":"FENGYUN 1C DEB","OBJECT_ID":"1999-025CKB","EPOCH":"2026-03-27T20:08:55.934592","MEAN_MOTION":13.3078043,"ECCENTRICITY":0.04939717,"INCLINATION":102.3422,"RA_OF_ASC_NODE":305.5118,"ARG_OF_PERICENTER":336.8956,"MEAN_ANOMALY":21.0616,"EPHEMERIS_TYPE":0,"CLASSIFICATION_TYPE":"U","NORAD_CAT_ID":31861,"ELEMENT_SET_NO":999,"REV_AT_EPOCH":68165,"BSTAR":0.002058828,"MEAN_MOTION_DOT":1.857e-5,"MEAN_MOTION_DDOT":0},{"OBJECT_NAME":"FENGYUN 1C DEB","OBJECT_ID":"1999-025CKC","EPOCH":"2026-04-03T17:08:18.289248","MEAN_MOTION":15.04894171,"ECCENTRICITY":0.00968533,"INCLINATION":98.9921,"RA_OF_ASC_NODE":186.9966,"ARG_OF_PERICENTER":273.0894,"MEAN_ANOMALY":85.9249,"EPHEMERIS_TYPE":0,"CLASSIFICATION_TYPE":"U","NORAD_CAT_ID":31877,"ELEMENT_SET_NO":999,"REV_AT_EPOCH":723,"BSTAR":0.0014037012,"MEAN_MOTION_DOT":0.00022024,"MEAN_MOTION_DDOT":0},{"OBJECT_NAME":"FENGYUN 1C DEB","OBJECT_ID":"1999-025CKD","EPOCH":"2026-04-03T02:47:24.173664","MEAN_MOTION":14.89167806,"ECCENTRICITY":0.00784518,"INCLINATION":99.4487,"RA_OF_ASC_NODE":42.6596,"ARG_OF_PERICENTER":248.7675,"MEAN_ANOMALY":110.5144,"EPHEMERIS_TYPE":0,"CLASSIFICATION_TYPE":"U","NORAD_CAT_ID":31878,"ELEMENT_SET_NO":999,"REV_AT_EPOCH":99749,"BSTAR":0.0021151899,"MEAN_MOTION_DOT":0.00021143,"MEAN_MOTION_DDOT":0},{"OBJECT_NAME":"FENGYUN 1C DEB","OBJECT_ID":"1999-025CKE","EPOCH":"2026-04-03T15:53:29.195808","MEAN_MOTION":14.43295882,"ECCENTRICITY":0.0209034,"INCLINATION":99.6973,"RA_OF_ASC_NODE":352.6471,"ARG_OF_PERICENTER":71.8635,"MEAN_ANOMALY":290.5192,"EPHEMERIS_TYPE":0,"CLASSIFICATION_TYPE":"U","NORAD_CAT_ID":31879,"ELEMENT_SET_NO":999,"REV_AT_EPOCH":64824,"BSTAR":0.0005485,"MEAN_MOTION_DOT":2.344e-5,"MEAN_MOTION_DDOT":0},{"OBJECT_NAME":"FENGYUN 1C DEB","OBJECT_ID":"1999-025CKF","EPOCH":"2026-03-31T17:18:13.351968","MEAN_MOTION":13.89609175,"ECCENTRICITY":0.01272203,"INCLINATION":100.0401,"RA_OF_ASC_NODE":266.9341,"ARG_OF_PERICENTER":225.3477,"MEAN_ANOMALY":133.7253,"EPHEMERIS_TYPE":0,"CLASSIFICATION_TYPE":"U","NORAD_CAT_ID":31880,"ELEMENT_SET_NO":999,"REV_AT_EPOCH":64493,"BSTAR":0.00087809868,"MEAN_MOTION_DOT":1.096e-5,"MEAN_MOTION_DDOT":0},{"OBJECT_NAME":"FENGYUN 1C DEB","OBJECT_ID":"1999-025CKH","EPOCH":"2026-04-01T00:56:52.717056","MEAN_MOTION":14.1327135,"ECCENTRICITY":0.00352421,"INCLINATION":98.9211,"RA_OF_ASC_NODE":18.1711,"ARG_OF_PERICENTER":276.9206,"MEAN_ANOMALY":82.7958,"EPHEMERIS_TYPE":0,"CLASSIFICATION_TYPE":"U","NORAD_CAT_ID":31882,"ELEMENT_SET_NO":999,"REV_AT_EPOCH":60180,"BSTAR":0.00072275273,"MEAN_MOTION_DOT":1.318e-5,"MEAN_MOTION_DDOT":0},{"OBJECT_NAME":"FENGYUN 1C DEB","OBJECT_ID":"1999-025CKJ","EPOCH":"2026-04-04T06:33:56.932704","MEAN_MOTION":14.69002987,"ECCENTRICITY":0.01225291,"INCLINATION":99.033,"RA_OF_ASC_NODE":27.5326,"ARG_OF_PERICENTER":81.8019,"MEAN_ANOMALY":279.7059,"EPHEMERIS_TYPE":0,"CLASSIFICATION_TYPE":"U","NORAD_CAT_ID":31883,"ELEMENT_SET_NO":999,"REV_AT_EPOCH":99630,"BSTAR":0.0013268809,"MEAN_MOTION_DOT":8.67e-5,"MEAN_MOTION_DDOT":0},{"OBJECT_NAME":"FENGYUN 1C DEB","OBJECT_ID":"1999-025CKN","EPOCH":"2026-04-02T11:21:20.858112","MEAN_MOTION":14.59504961,"ECCENTRICITY":0.00224993,"INCLINATION":99.5241,"RA_OF_ASC_NODE":165.1743,"ARG_OF_PERICENTER":41.7966,"MEAN_ANOMALY":318.4943,"EPHEMERIS_TYPE":0,"CLASSIFICATION_TYPE":"U","NORAD_CAT_ID":31887,"ELEMENT_SET_NO":999,"REV_AT_EPOCH":98222,"BSTAR":0.0028679608,"MEAN_MOTION_DOT":0.00013629,"MEAN_MOTION_DDOT":0},{"OBJECT_NAME":"FENGYUN 1C DEB","OBJECT_ID":"1999-025CKP","EPOCH":"2026-04-04T14:02:12.322176","MEAN_MOTION":14.3538041,"ECCENTRICITY":0.0017069,"INCLINATION":99.1587,"RA_OF_ASC_NODE":32.6732,"ARG_OF_PERICENTER":249.9666,"MEAN_ANOMALY":109.968,"EPHEMERIS_TYPE":0,"CLASSIFICATION_TYPE":"U","NORAD_CAT_ID":31888,"ELEMENT_SET_NO":999,"REV_AT_EPOCH":97255,"BSTAR":0.0028892,"MEAN_MOTION_DOT":8.265e-5,"MEAN_MOTION_DDOT":0},{"OBJECT_NAME":"FENGYUN 1C DEB","OBJECT_ID":"1999-025CKR","EPOCH":"2026-04-02T18:37:17.101632","MEAN_MOTION":14.10188886,"ECCENTRICITY":0.00713877,"INCLINATION":98.7166,"RA_OF_ASC_NODE":105.8963,"ARG_OF_PERICENTER":288.105,"MEAN_ANOMALY":71.2355,"EPHEMERIS_TYPE":0,"CLASSIFICATION_TYPE":"U","NORAD_CAT_ID":31890,"ELEMENT_SET_NO":999,"REV_AT_EPOCH":65717,"BSTAR":9.5677744e-5,"MEAN_MOTION_DOT":1.3e-6,"MEAN_MOTION_DDOT":0},{"OBJECT_NAME":"FENGYUN 1C DEB","OBJECT_ID":"1999-025CKS","EPOCH":"2026-04-04T00:20:27.712032","MEAN_MOTION":13.66330749,"ECCENTRICITY":0.02235197,"INCLINATION":99.3974,"RA_OF_ASC_NODE":110.8763,"ARG_OF_PERICENTER":253.5005,"MEAN_ANOMALY":104.1476,"EPHEMERIS_TYPE":0,"CLASSIFICATION_TYPE":"U","NORAD_CAT_ID":31891,"ELEMENT_SET_NO":999,"REV_AT_EPOCH":93943,"BSTAR":0.00067200873,"MEAN_MOTION_DOT":6.15e-6,"MEAN_MOTION_DDOT":0}]
