FENGYUN 1C DEB          
1 31841U 99025CJF 26093.72496552  .00004141  00000+0  17252-2 0  9990
2 31841  98.4292 259.5700 0303512 348.0706  22.5468 14.04808474609117
FENGYUN 1C DEB          
1 31843U 99025CJH 26092.77618103  .00005227  00000+0  32495-2 0  9996
2 31843  99.2898  29.0529 0635216  79.7875 287.4227 13.35099547661774
FENGYUN 1C DEB          
1 31844U 99025CJJ 26094.46866714  .00002747  00000+0  12443-2 0  9993
2 31844 100.3072 106.5232 0103026  42.8801 318.0347 14.20222280969327
FENGYUN 1C DEB          
1 31854U 99025CJU 26092.98098547  .00000375  00000+0  26193-3 0  9993
2 31854  98.8517  98.1334 0071540 189.7206 170.2581 14.03240692708324
FENGYUN 1C DEB          
1 31857U 99025CJX 26084.26156908  .00002105  00000+0  19912-2 0  9997
2 31857  96.1886  81.5941 0309292 357.2390   2.7043 13.62349305630254
FENGYUN 1C DEB          
1 31861U 99025CKB 26086.83953628  .00001857  00000+0  20588-2 0  9995
2 31861 102.3422 305.5118 0493971 336.8956  21.0616 13.30780430681652
FENGYUN 1C DEB          
1 31877U 99025CKC 26093.71410057  .00022024  00000+0  14037-2 0  9992
2 31877  98.9921 186.9966 0096853 273.0894  85.9249 15.04894171  7234
FENGYUN 1C DEB          
1 31878U 99025CKD 26093.11625201  .00021143  00000+0  21152-2 0  9993
2 31878  99.4487  42.6596 0078451 248.7675 110.5144 14.89167806997490
FENGYUN 1C DEB          
1 31879U 99025CKE 26093.66214347  .00002344  00000+0  54850-3 0  9993
2 31879  99.6973 352.6471 0209034  71.8635 290.5192 14.43295882648247
FENGYUN 1C DEB          
1 31880U 99025CKF 26090.72098787  .00001096  00000+0  87810-3 0  9992
2 31880 100.0401 266.9341 0127220 225.3477 133.7253 13.89609175644932
FENGYUN 1C DEB          
1 31882U 99025CKH 26091.03949904  .00001318  00000+0  72275-3 0  9991
2 31882  98.9211  18.1711 0035242 276.9206  82.7958 14.13271350601802
FENGYUN 1C DEB          
1 31883U 99025CKJ 26094.27357561  .00008670  00000+0  13269-2 0  9998
2 31883  99.0330  27.5326 0122529  81.8019 279.7059 14.69002987996304
FENGYUN 1C DEB          
1 31887U 99025CKN 26092.47315808  .00013629  00000+0  28680-2 0  9993
2 31887  99.5241 165.1743 0022499  41.7966 318.4943 14.59504961982224
FENGYUN 1C DEB          
1 31888U 99025CKP 26094.58486484  .00008265  00000+0  28892-2 0  9992
2 31888  99.1587  32.6732 0017069 249.9666 109.9680 14.35380410972557
FENGYUN 1C DEB          
1 31890U 99025CKR 26092.77589238  .00000130  00000+0  95678-4 0  9996
2 31890  98.7166 105.8963 0071387 288.1050  71.2355 14.10188886657176
FENGYUN 1C DEB          
1 31891U 99025CKS 26094.01420963  .00000615  00000+0  67201-3 0  9993
2 31891  99.3974 110.8763 0223519 253.5005 104.1476 13.66330749939436
